{
    "links": {
        "self": "http://www.neowsapp.com/rest/v1/neo/3760089?api_key=iIulBulltgU6a56xZRHN4H3l9WmuAYTsLGpBGhQ2"
    },
    "id": "3760089",
    "neo_reference_id": "3760089",
    "name": "(2016 TL)",
    "designation": "2016 TL",
    "nasa_jpl_url": "http://ssd.jpl.nasa.gov/sbdb.cgi?sstr=3760089",
    "absolute_magnitude_h": 24.0,
    "estimated_diameter": {
        "kilometers": {
            "estimated_diameter_min": 0.0421264611,
            "estimated_diameter_max": 0.0941976306
        },
        "meters": {
            "estimated_diameter_min": 42.1264610556,
            "estimated_diameter_max": 94.1976305719
        },
        "miles": {
            "estimated_diameter_min": 0.0261761612,
            "estimated_diameter_max": 0.0585316759
        },
        "feet": {
            "estimated_diameter_min": 138.2101784897,
            "estimated_diameter_max": 309.0473542854
        }
    },
    "is_potentially_hazardous_asteroid": false,
    "close_approach_data": [
        {
            "close_approach_date": "2016-09-30",
            "close_approach_date_full": "2016-Sep-30 10:29",
            "epoch_date_close_approach": 1475231340000,
            "relative_velocity": {
                "kilometers_per_second": "14.299661823",
                "kilometers_per_hour": "51478.7825626474",
                "miles_per_hour": "31986.9135317739"
            },
            "miss_distance": {
                "astronomical": "0.075498032",
                "lunar": "29.368734448",
                "kilometers": "11294344.77639184",
                "miles": "7017980.415973792"
            },
            "orbiting_body": "Earth"
        }
    ],
    "orbital_data": {
        "orbit_id": "8",
        "orbit_determination_date": "2017-04-06 08:23:28",
        "first_observation_date": "2016-10-01",
        "last_observation_date": "2016-10-10",
        "data_arc_in_days": 9,
        "observations_used": 36,
        "orbit_uncertainty": "8",
        "minimum_orbit_intersection": ".0554303",
        "jupiter_tisserand_invariant": "3.971",
        "epoch_osculation": "2457665.5",
        "eccentricity": ".4363440782517268",
        "semi_major_axis": "1.726347632088821",
        "inclination": "22.65133389924091",
        "ascending_node_longitude": "14.20007695844942",
        "orbital_period": "828.4967459734532",
        "perihelion_distance": ".9730660658229735",
        "perihelion_argument": "315.7197593299524",
        "aphelion_distance": "2.479629198354669",
        "perihelion_time": "2457627.632669382931",
        "mean_anomaly": "16.45418535244512",
        "mean_motion": ".4345219238936336",
        "equinox": "J2000",
        "orbit_class": {
            "orbit_class_type": "APO",
            "orbit_class_description": "Near-Earth asteroid orbits which cross the Earth’s orbit similar to that of 1862 Apollo",
            "orbit_class_range": "a (semi-major axis) > 1.0 AU; q (perihelion) < 1.017 AU"
        }
    },
    "is_sentry_object": false
}